{"epoch":1784710044,"count":18256,"objects":[{"id":"66000","name":"HULIANWANG DIGUI-92","type":"PAYLOAD","l1":"1 66000U 25231F   26202.26314049 -.00000114  00000-0  22315-4 0  9990","l2":"2 66000  50.0063  53.4404 0000506   2.8572 357.2303 13.29329147 37423"},{"id":"66001","name":"HULIANWANG DIGUI-93","type":"PAYLOAD","l1":"1 66001U 25231G   26201.94568667 -.00000110  00000-0  30676-4 0  9997","l2":"2 66001  50.0029  54.3653 0000501 356.8891   3.1978 13.29328191 37381"},{"id":"66002","name":"HULIANWANG DIGUI-94","type":"PAYLOAD","l1":"1 66002U 25231H   26201.95420454 -.00000107  00000-0  36074-4 0  9994","l2":"2 66002  50.0067  54.4940 0000532 358.7337   1.3534 13.29326159 37384"},{"id":"66003","name":"HULIANWANG DIGUI-95","type":"PAYLOAD","l1":"1 66003U 25231J   26202.61397287 -.00000110  00000-0  31048-4 0  9996","l2":"2 66003  50.0042  51.9213 0000457   6.0553 354.0324 13.29332741 37471"},{"id":"66412","name":"HULIANWANG DIGUI-96","type":"PAYLOAD","l1":"1 66412U 25258A   26202.18662468 -.00000085  00000-0  83321-4 0  9999","l2":"2 66412  50.0025 173.6976 0000816 271.4834  88.5945 13.29327573 34251"},{"id":"66413","name":"HULIANWANG DIGUI-97","type":"PAYLOAD","l1":"1 66413U 25258B   26202.59589204 -.00000084  00000-0  86164-4 0  9998","l2":"2 66413  49.9990 172.4528 0000964 272.1413  87.9349 13.29327059 34301"},{"id":"66414","name":"HULIANWANG DIGUI-98","type":"PAYLOAD","l1":"1 66414U 25258C   26202.58770167 -.00000082  00000-0  91434-4 0  9992","l2":"2 66414  50.0027 172.4903 0001052 267.4886  92.5866 13.29323567 34309"},{"id":"66415","name":"HULIANWANG DIGUI-99","type":"PAYLOAD","l1":"1 66415U 25258D   26202.62938044 -.00000089  00000-0  75955-4 0  9995","l2":"2 66415  50.0026 172.0389 0000928 275.8563  84.2203 13.29326860 34301"},{"id":"66416","name":"HULIANWANG DIGUI-100","type":"PAYLOAD","l1":"1 66416U 25258E   26202.20344095 -.00000082  00000-0  89565-4 0  9992","l2":"2 66416  50.0027 173.7993 0000984 278.3184  81.7576 13.29323578 34264"},{"id":"66417","name":"HULIANWANG DIGUI-101","type":"PAYLOAD","l1":"1 66417U 25258F   26202.34524577 -.00000077  00000-0  10176-3 0  9998","l2":"2 66417  49.9979 173.1057 0000772 276.0851  83.9933 13.29327529 34287"},{"id":"66418","name":"HULIANWANG DIGUI-102","type":"PAYLOAD","l1":"1 66418U 25258G   26202.16998112 -.00000093  00000-0  66404-4 0  9993","l2":"2 66418  49.9993 173.5405 0000852 269.4876  90.5899 13.29323480 34251"},{"id":"66419","name":"HULIANWANG DIGUI-103","type":"PAYLOAD","l1":"1 66419U 25258H   26202.31184526 -.00000089  00000-0  76388-4 0  9994","l2":"2 66419  49.9987 172.9422 0000959 279.9327  80.1436 13.29326620 34275"},{"id":"66420","name":"HULIANWANG DIGUI-104","type":"PAYLOAD","l1":"1 66420U 25258J   26202.37871371 -.00000089  00000-0  75844-4 0  9999","l2":"2 66420  50.0002 172.6694 0000889 270.2274  89.8497 13.29326608 34272"},{"id":"66915","name":"HULIANWANG DIGUI-105","type":"PAYLOAD","l1":"1 66915U 25285A   26202.53317038 -.00000111  00000-0  29011-4 0  9992","l2":"2 66915  50.0064  23.0406 0000917  56.7887 303.3073 13.29322863 30626"},{"id":"66916","name":"HULIANWANG DIGUI-106","type":"PAYLOAD","l1":"1 66916U 25285B   26202.52477029 -.00000125  00000-0 -15241-5 0  9996","l2":"2 66916  50.0075  23.0180 0000949  54.7946 305.3015 13.29323219 30621"},{"id":"66917","name":"HULIANWANG DIGUI-107","type":"PAYLOAD","l1":"1 66917U 25285C   26202.44108548 -.00000124  00000-0  10847-5 0  9990","l2":"2 66917  50.0042  23.1799 0000924  59.5649 300.5314 13.29326146 30619"}]}