{"fetched_at":"2026-07-22T07:09:47.414Z","source":"https://celestrak.org/NORAD/elements/gp.php?NAME=HULIANWANG&FORMAT=JSON","constellation":"guowang","records":[{"OBJECT_NAME":"HULIANWANG DIGUI-92","OBJECT_ID":"2025-231F","EPOCH":"2026-07-21T06:18:55.338336","CLASSIFICATION_TYPE":"U","MEAN_MOTION":13.29329147,"ECCENTRICITY":0.00005059,"INCLINATION":50.0063,"RA_OF_ASC_NODE":53.4404,"ARG_OF_PERICENTER":2.8572,"MEAN_ANOMALY":357.2303,"EPHEMERIS_TYPE":0,"NORAD_CAT_ID":66000,"ELEMENT_SET_NO":999,"REV_AT_EPOCH":3742,"BSTAR":0.000022314746,"MEAN_MOTION_DOT":-0.00000114,"MEAN_MOTION_DDOT":0},{"OBJECT_NAME":"HULIANWANG DIGUI-93","OBJECT_ID":"2025-231G","EPOCH":"2026-07-20T22:41:47.328288","CLASSIFICATION_TYPE":"U","MEAN_MOTION":13.29328191,"ECCENTRICITY":0.0000501,"INCLINATION":50.0029,"RA_OF_ASC_NODE":54.3653,"ARG_OF_PERICENTER":356.8891,"MEAN_ANOMALY":3.1978,"EPHEMERIS_TYPE":0,"NORAD_CAT_ID":66001,"ELEMENT_SET_NO":999,"REV_AT_EPOCH":3738,"BSTAR":0.000030675657,"MEAN_MOTION_DOT":-0.0000011,"MEAN_MOTION_DDOT":0},{"OBJECT_NAME":"HULIANWANG DIGUI-94","OBJECT_ID":"2025-231H","EPOCH":"2026-07-20T22:54:03.272256","CLASSIFICATION_TYPE":"U","MEAN_MOTION":13.29326159,"ECCENTRICITY":0.00005319,"INCLINATION":50.0067,"RA_OF_ASC_NODE":54.494,"ARG_OF_PERICENTER":358.7337,"MEAN_ANOMALY":1.3534,"EPHEMERIS_TYPE":0,"NORAD_CAT_ID":66002,"ELEMENT_SET_NO":999,"REV_AT_EPOCH":3738,"BSTAR":0.000036073771,"MEAN_MOTION_DOT":-0.00000107,"MEAN_MOTION_DDOT":0},{"OBJECT_NAME":"HULIANWANG DIGUI-95","OBJECT_ID":"2025-231J","EPOCH":"2026-07-21T14:44:07.255968","CLASSIFICATION_TYPE":"U","MEAN_MOTION":13.29332741,"ECCENTRICITY":0.00004567,"INCLINATION":50.0042,"RA_OF_ASC_NODE":51.9213,"ARG_OF_PERICENTER":6.0553,"MEAN_ANOMALY":354.0324,"EPHEMERIS_TYPE":0,"NORAD_CAT_ID":66003,"ELEMENT_SET_NO":999,"REV_AT_EPOCH":3747,"BSTAR":0.000031047673,"MEAN_MOTION_DOT":-0.0000011,"MEAN_MOTION_DDOT":0},{"OBJECT_NAME":"HULIANWANG DIGUI-96","OBJECT_ID":"2025-258A","EPOCH":"2026-07-21T04:28:44.372352","CLASSIFICATION_TYPE":"U","MEAN_MOTION":13.29327573,"ECCENTRICITY":0.00008156,"INCLINATION":50.0025,"RA_OF_ASC_NODE":173.6976,"ARG_OF_PERICENTER":271.4834,"MEAN_ANOMALY":88.5945,"EPHEMERIS_TYPE":0,"NORAD_CAT_ID":66412,"ELEMENT_SET_NO":999,"REV_AT_EPOCH":3425,"BSTAR":0.00008332088,"MEAN_MOTION_DOT":-8.5e-7,"MEAN_MOTION_DDOT":0},{"OBJECT_NAME":"HULIANWANG DIGUI-97","OBJECT_ID":"2025-258B","EPOCH":"2026-07-21T14:18:05.072256","CLASSIFICATION_TYPE":"U","MEAN_MOTION":13.29327059,"ECCENTRICITY":0.00009641,"INCLINATION":49.999,"RA_OF_ASC_NODE":172.4528,"ARG_OF_PERICENTER":272.1413,"MEAN_ANOMALY":87.9349,"EPHEMERIS_TYPE":0,"NORAD_CAT_ID":66413,"ELEMENT_SET_NO":999,"REV_AT_EPOCH":3430,"BSTAR":0.000086164153,"MEAN_MOTION_DOT":-8.4e-7,"MEAN_MOTION_DDOT":0},{"OBJECT_NAME":"HULIANWANG DIGUI-98","OBJECT_ID":"2025-258C","EPOCH":"2026-07-21T14:06:17.424288","CLASSIFICATION_TYPE":"U","MEAN_MOTION":13.29323567,"ECCENTRICITY":0.00010515,"INCLINATION":50.0027,"RA_OF_ASC_NODE":172.4903,"ARG_OF_PERICENTER":267.4886,"MEAN_ANOMALY":92.5866,"EPHEMERIS_TYPE":0,"NORAD_CAT_ID":66414,"ELEMENT_SET_NO":999,"REV_AT_EPOCH":3430,"BSTAR":0.000091433848,"MEAN_MOTION_DOT":-8.2e-7,"MEAN_MOTION_DDOT":0},{"OBJECT_NAME":"HULIANWANG DIGUI-99","OBJECT_ID":"2025-258D","EPOCH":"2026-07-21T15:06:18.470016","CLASSIFICATION_TYPE":"U","MEAN_MOTION":13.2932686,"ECCENTRICITY":0.00009281,"INCLINATION":50.0026,"RA_OF_ASC_NODE":172.0389,"ARG_OF_PERICENTER":275.8563,"MEAN_ANOMALY":84.2203,"EPHEMERIS_TYPE":0,"NORAD_CAT_ID":66415,"ELEMENT_SET_NO":999,"REV_AT_EPOCH":3430,"BSTAR":0.000075954677,"MEAN_MOTION_DOT":-8.9e-7,"MEAN_MOTION_DDOT":0},{"OBJECT_NAME":"HULIANWANG DIGUI-100","OBJECT_ID":"2025-258E","EPOCH":"2026-07-21T04:52:57.298080","CLASSIFICATION_TYPE":"U","MEAN_MOTION":13.29323578,"ECCENTRICITY":0.00009843,"INCLINATION":50.0027,"RA_OF_ASC_NODE":173.7993,"ARG_OF_PERICENTER":278.3184,"MEAN_ANOMALY":81.7576,"EPHEMERIS_TYPE":0,"NORAD_CAT_ID":66416,"ELEMENT_SET_NO":999,"REV_AT_EPOCH":3426,"BSTAR":0.000089564629,"MEAN_MOTION_DOT":-8.2e-7,"MEAN_MOTION_DDOT":0},{"OBJECT_NAME":"HULIANWANG DIGUI-101","OBJECT_ID":"2025-258F","EPOCH":"2026-07-21T08:17:09.234528","CLASSIFICATION_TYPE":"U","MEAN_MOTION":13.29327529,"ECCENTRICITY":0.00007725,"INCLINATION":49.9979,"RA_OF_ASC_NODE":173.1057,"ARG_OF_PERICENTER":276.0851,"MEAN_ANOMALY":83.9933,"EPHEMERIS_TYPE":0,"NORAD_CAT_ID":66417,"ELEMENT_SET_NO":999,"REV_AT_EPOCH":3428,"BSTAR":0.00010176467,"MEAN_MOTION_DOT":-7.7e-7,"MEAN_MOTION_DDOT":0},{"OBJECT_NAME":"HULIANWANG DIGUI-102","OBJECT_ID":"2025-258G","EPOCH":"2026-07-21T04:04:46.368768","CLASSIFICATION_TYPE":"U","MEAN_MOTION":13.2932348,"ECCENTRICITY":0.00008522,"INCLINATION":49.9993,"RA_OF_ASC_NODE":173.5405,"ARG_OF_PERICENTER":269.4876,"MEAN_ANOMALY":90.5899,"EPHEMERIS_TYPE":0,"NORAD_CAT_ID":66418,"ELEMENT_SET_NO":999,"REV_AT_EPOCH":3425,"BSTAR":0.000066404286,"MEAN_MOTION_DOT":-9.3e-7,"MEAN_MOTION_DDOT":0},{"OBJECT_NAME":"HULIANWANG DIGUI-103","OBJECT_ID":"2025-258H","EPOCH":"2026-07-21T07:29:03.430464","CLASSIFICATION_TYPE":"U","MEAN_MOTION":13.2932662,"ECCENTRICITY":0.00009587,"INCLINATION":49.9987,"RA_OF_ASC_NODE":172.9422,"ARG_OF_PERICENTER":279.9327,"MEAN_ANOMALY":80.1436,"EPHEMERIS_TYPE":0,"NORAD_CAT_ID":66419,"ELEMENT_SET_NO":999,"REV_AT_EPOCH":3427,"BSTAR":0.000076388344,"MEAN_MOTION_DOT":-8.9e-7,"MEAN_MOTION_DDOT":0},{"OBJECT_NAME":"HULIANWANG DIGUI-104","OBJECT_ID":"2025-258J","EPOCH":"2026-07-21T09:05:20.864544","CLASSIFICATION_TYPE":"U","MEAN_MOTION":13.29326608,"ECCENTRICITY":0.00008895,"INCLINATION":50.0002,"RA_OF_ASC_NODE":172.6694,"ARG_OF_PERICENTER":270.2274,"MEAN_ANOMALY":89.8497,"EPHEMERIS_TYPE":0,"NORAD_CAT_ID":66420,"ELEMENT_SET_NO":999,"REV_AT_EPOCH":3427,"BSTAR":0.000075844293,"MEAN_MOTION_DOT":-8.9e-7,"MEAN_MOTION_DDOT":0},{"OBJECT_NAME":"HULIANWANG DIGUI-105","OBJECT_ID":"2025-285A","EPOCH":"2026-07-21T12:47:45.920832","CLASSIFICATION_TYPE":"U","MEAN_MOTION":13.29322863,"ECCENTRICITY":0.00009169,"INCLINATION":50.0064,"RA_OF_ASC_NODE":23.0406,"ARG_OF_PERICENTER":56.7887,"MEAN_ANOMALY":303.3073,"EPHEMERIS_TYPE":0,"NORAD_CAT_ID":66915,"ELEMENT_SET_NO":999,"REV_AT_EPOCH":3062,"BSTAR":0.000029010851,"MEAN_MOTION_DOT":-0.00000111,"MEAN_MOTION_DDOT":0},{"OBJECT_NAME":"HULIANWANG DIGUI-106","OBJECT_ID":"2025-285B","EPOCH":"2026-07-21T12:35:40.153056","CLASSIFICATION_TYPE":"U","MEAN_MOTION":13.29323219,"ECCENTRICITY":0.00009495,"INCLINATION":50.0075,"RA_OF_ASC_NODE":23.018,"ARG_OF_PERICENTER":54.7946,"MEAN_ANOMALY":305.3015,"EPHEMERIS_TYPE":0,"NORAD_CAT_ID":66916,"ELEMENT_SET_NO":999,"REV_AT_EPOCH":3062,"BSTAR":-0.000001524117,"MEAN_MOTION_DOT":-0.00000125,"MEAN_MOTION_DDOT":0},{"OBJECT_NAME":"HULIANWANG DIGUI-107","OBJECT_ID":"2025-285C","EPOCH":"2026-07-21T10:35:09.785472","CLASSIFICATION_TYPE":"U","MEAN_MOTION":13.29326146,"ECCENTRICITY":0.00009245,"INCLINATION":50.0042,"RA_OF_ASC_NODE":23.1799,"ARG_OF_PERICENTER":59.5649,"MEAN_ANOMALY":300.5314,"EPHEMERIS_TYPE":0,"NORAD_CAT_ID":66917,"ELEMENT_SET_NO":999,"REV_AT_EPOCH":3061,"BSTAR":0.000001084653,"MEAN_MOTION_DOT":-0.00000124,"MEAN_MOTION_DDOT":0}]}
